CELTEE 1                
1 41850U 16067C   18066.21110120 -.00000328  00000-0 -23319-4 0  9994
2 41850  97.9272 153.0808 0009686 136.5989 223.5996 14.96756723 71847
OPTICUBE 04             
1 41851U 16067D   18066.30076994  .00000125  00000-0  16259-4 0  9993
2 41851  97.9261 153.1120 0009892 139.3791 220.8169 14.96624536 71854
AEROCUBE 8D             
1 41852U 16067E   18066.45850648  .00000660  00000-0  63485-4 0  9993
2 41852  97.9284 153.1283 0010857 137.1080 223.0989 14.96427026 71861
AEROCUBE 8C             
1 41853U 16067F   18066.47021081  .00000037  00000-0  86132-5 0  9990
2 41853  97.9284 153.1100 0011029 138.3555 221.8507 14.96392148 71860
PROMETHEUS 2-1          
1 41854U 16067G   18066.54944340 -.00000141  00000-0 -70240-5 0  9992
2 41854  97.9286 153.1778 0011248 139.3649 220.8413 14.96456406 71876
PROMETHEUS 2-3          
1 41855U 16067H   18066.28443785 -.00000103  00000-0 -37361-5 0  9996
2 41855  97.9286 152.9114 0011398 140.7966 219.4082 14.96453136 71831
ITF-2                   
1 41932U 98067KU  18066.60759332  .00017943  00000-0  14944-3 0  9994
2 41932  51.6369 141.8927 0002725 164.0135 196.0949 15.70187134 64778
WASEDA-SAT3             
1 41933U 98067KV  18066.57287554  .00025065  00000-0  18061-3 0  9991
2 41933  51.6336 138.5671 0001894 166.0198 194.0853 15.73402301 64815
AOBA-VELOX 3            
1 41935U 98067KX  18066.62142360  .00023844  00000-0  18099-3 0  9998
2 41935  51.6355 139.7024 0001753 165.7294 194.3754 15.72205248 64903
INS-1B                  
1 41954U 17008G   18066.60474346  .00001116  00000-0  50913-4 0  9995
2 41954  97.4585 131.3781 0009266   0.0970   0.0267 15.22701774 58549
BGUSAT                  
1 41999U 17008BD  18066.61184936  .00001823  00000-0  77970-4 0  9995
2 41999  97.4625 132.1538 0008794  19.5896 340.5677 15.24106138 57955
DIDO-2                  
1 42000U 17008BE  18066.56146002  .00000786  00000-0  36444-4 0  9993
2 42000  97.4604 131.7078 0009097  19.6479 340.5107 15.22970016 57933
PEASSS                  
1 42015U 17008BV  18066.85511000  .00001089  00000-0  48306-4 0  9992
2 42015  97.4598 132.3402 0007191  29.0512 331.1123 15.23728279 58483
AL-FARABI 1             
1 42016U 17008BW  18066.80726389  .00001287  00000-0  55959-4 0  9998
2 42016  97.4604 132.4223 0007073  29.9980 330.1661 15.24072861 58601
NAYIF-1 (EO-88)         
1 42017U 17008BX  18066.80303721  .00001300  00000-0  56472-4 0  9997
2 42017  97.4602 132.4235 0007065  30.2250 329.9393 15.24094301 58622
HAVELSAT                
1 42700U 98067LH  18066.65665840  .00016723  00000-0  16576-3 0  9991
2 42700  51.6366 151.9599 0003592 238.4694 121.5951 15.65942676 46089
COLUMBIA                
1 42702U 98067LK  18066.37622415  .22640365  12480-4  12628-2 0  9994
2 42702  51.6147 131.6862 0001623 340.6009  19.7898 16.42105255 46241
SGSAT                   
1 42703U 98067LL  18066.67112073  .00077068  00000-0  38982-3 0  9995
2 42703  51.6331 141.4215 0002472  11.0479 349.0577 15.80871025 46138
CXBN-2                  
1 42704U 98067LM  18066.46102744  .00016288  00000-0  16421-3 0  9998
2 42704  51.6373 153.6625 0000961 133.1156 226.9920 15.65540365 45962
ICECUBE                 
1 42705U 98067LN  18066.82256046  .00029215  00000-0  24610-3 0  9997
2 42705  51.6408 148.6260 0001005 120.4630 239.6467 15.69578597 46125
PHOENIX                 
1 42706U 98067LP  18066.84316154  .00013274  00000-0  13771-3 0  9991
2 42706  51.6364 151.7090 0000321 133.2427 226.8595 15.65011652 46017
X-CUBESAT               
1 42707U 98067LQ  18066.66155220  .00017099  00000-0  16821-3 0  9995
2 42707  51.6342 151.9600 0000150  95.7646 264.3367 15.66114887 45982
QBEE50-LTU-OC           
1 42708U 98067LR  18066.69284860  .00015759  00000-0  15832-3 0  9994
2 42708  51.6365 152.1893 0000193 130.5345 229.5667 15.65657748 45945
ALTAIR PATHFINDER       
1 42711U 98067LS  18066.72756502  .00009212  00000-0  11080-3 0  9997
2 42711  51.6368 156.1838 0003422 152.5627 207.5548 15.61641851 45601
SHARC                   
1 42712U 98067LT  18066.80654723  .00008864  00000-0  11125-3 0  9991
2 42712  51.6386 156.7466 0001845 155.3857 204.7225 15.60574531 45844
ZA-AEROSAT              
1 42713U 98067LU  18066.66565532  .00012864  00000-0  13956-3 0  9994
2 42713  51.6356 154.2659 0001551 131.8873 228.2254 15.63903876 45620
LINK                    
1 42714U 98067LV  18066.59418066  .00027467  00000-0  23072-3 0  9991
2 42714  51.6325 149.9811 0000879  90.3302 269.7796 15.69683129 45786
CSUNSAT 1               
1 42715U 98067LW  18066.45724491  .00014025  00000-0  14988-3 0  9991
2 42715  51.6370 155.1340 0003179 140.2201 219.9028 15.64198940 45593
SPACECUBE               
1 42717U 98067LY  18066.84337956  .00016608  00000-0  16706-3 0  9991
2 42717  51.6353 151.6950 0002339 245.8019 114.2732 15.65580698 45045
HOOPOE                  
1 42718U 98067LZ  18066.74590195  .00017796  00000-0  16945-3 0  9991
2 42718  51.6360 151.0475 0002091 249.5627 110.5145 15.66899755 45046
CHALLENGER              
1 42721U 98067MA  18066.69786132  .00030288  00000-0  23009-3 0  9997
2 42721  51.6336 147.6719 0002924 233.5268 126.5461 15.72038437 44781
NJUST-1                 
1 42722U 98067MB  18066.80091429  .00011810  00000-0  13197-3 0  9996
2 42722  51.6367 154.4264 0005041 212.4431 147.6254 15.63230818 44701
UNSW-ECO                
1 42723U 98067MC  18066.83950670  .00021765  00000-0  20407-3 0  9994
2 42723  51.6374 150.9381 0003876 218.2475 141.8246 15.67126494 44735
LILACSAT-1              
1 42725U 98067ME  18066.71280244  .00014571  00000-0  15295-3 0  9992
2 42725  51.6366 153.8379 0003888 217.0276 143.0451 15.64615877 44609
NSIGHT-1                
1 42726U 98067MF  18066.82588976  .00005603  00000-0  74797-4 0  9997
2 42726  51.6388 157.6202 0005043 213.5117 146.5557 15.59782290 44570
SNUSAT-1                
1 42727U 98067MG  18066.65440765  .00015007  00000-0  15775-3 0  9991
2 42727  51.6351 154.1646 0005482 170.9260 189.1835 15.64545216 44569
I-INSPIRE II            
1 42731U 98067ML  18066.61116867  .00022734  00000-0  20879-3 0  9991
2 42731  51.6354 151.6199 0004168 152.1677 207.9543 15.67609260 44485
POLYITAN-2-SAU          
1 42732U 98067MM  18066.65555867  .00017995  00000-0  17781-3 0  9994
2 42732  51.6359 152.6805 0004706 152.8747 207.2496 15.65956476 44470
SNUSAT-1B               
1 42733U 98067MN  18066.66454325  .00015031  00000-0  15490-3 0  9997
2 42733  51.6362 153.4983 0004934 157.1606 202.9609 15.65051923 44466
EXALTA-1                
1 42734U 98067MP  18066.67945755  .00020925  00000-0  19219-3 0  9992
2 42734  51.6339 151.3204 0004945 186.8838 173.2091 15.67662091 44441
BEEAGLESAT              
1 42736U 98067MR  18066.59504403  .00014295  00000-0  15194-3 0  9997
2 42736  51.6357 154.5332 0005181 208.2986 151.7728 15.64310897 44502
ATLANTIS                
1 42737U 98067MS  18066.65670535  .00200299  26065-4  60402-3 0  9991
2 42737  51.6232 137.4463 0004802   0.0202   0.0804 15.91788289 44626
UCLSAT                  
1 42765U 17036A   18066.21911579  .00001149  00000-0  53948-4 0  9995
2 42765  97.4142 127.6583 0013547  76.6177 283.6569 15.21560451 39796
LITUANICASAT-2          
1 42768U 17036D   18066.76503304  .00001781  00000-0  83348-4 0  9990
2 42768  97.4153 127.8632 0017369  65.0702 295.2336 15.20915614 39144
AALTO-1                 
1 42775U 17036L   18066.23542882  .00000727  00000-0  36260-4 0  9994
2 42775  97.4139 127.3322 0015782  64.7271 295.5598 15.20550277 39009
URSA MAIOR              
1 42776U 17036M   18066.22679321  .00000777  00000-0  38465-4 0  9997
2 42776  97.4144 127.3554 0015639  65.1115 295.1744 15.20616576 39000
COMPASS 2               
1 42777U 17036N   18066.47132973  .00001423  00000-0  66475-4 0  9993
2 42777  97.4161 127.8307 0014613  68.2319 292.0471 15.21359080 39044
DIAMOND RED             
1 42783U 17036U   18066.58796301  .00000903  00000-0  43471-4 0  9996
2 42783  97.4143 127.9331 0014116  75.2317 285.0482 15.21228286 39062
PEGASUS                 
1 42784U 17036V   18066.24429711  .00001028  00000-0  48841-4 0  9993
2 42784  97.4145 127.6333 0014070  76.4032 283.8770 15.21387580 39014
DIAMOND GREEN           
1 42785U 17036W   18066.71862489  .00000848  00000-0  41013-4 0  9992
2 42785  97.4144 128.0714 0014014  75.3784 284.9004 15.21231484 39071
DIAMOND BLUE            
1 42786U 17036X   18066.58617153  .00000899  00000-0  43280-4 0  9998
2 42786  97.4145 127.9417 0013856  76.0856 284.1920 15.21227682 39133
NUDTSAT                 
1 42787U 17036Y   18066.59165161  .00001506  00000-0  69205-4 0  9998
2 42787  97.4149 128.0894 0013623  75.6345 284.6403 15.21843455 38917
SUCHAI                  
1 42788U 17036Z   18066.61256419  .00001196  00000-0  55971-4 0  9999
2 42788  97.4146 128.0553 0013680  75.4758 284.7994 15.21610184 39149
SKCUBE                  
1 42789U 17036AA  18066.61017779  .00001103  00000-0  51856-4 0  9990
2 42789  97.4143 128.0543 0013519  75.5070 284.7665 15.21594032 39064
VZLUSAT-1               
1 42790U 17036AB  18066.58263631  .00001450  00000-0  66692-4 0  9997
2 42790  97.4145 128.0887 0013192  76.0791 284.1912 15.21872429 39060
ROBUSTA-1B              
1 42792U 17036AD  18066.58812168  .00001153  00000-0  53888-4 0  9997
2 42792  97.4142 128.0755 0013095  76.5920 283.6775 15.21732020 39078
CICERO 6                
1 42793U 17036AE  18066.24617362  .00000711  00000-0  34478-4 0  9993
2 42793  97.4137 127.7604 0012260  78.6016 281.6597 15.21670454 39098
D-SAT                   
1 42794U 17036AF  18066.15813963  .00000269  00000-0  29291-4 0  9994
2 42794  97.6059 124.5991 0125714 261.5858  97.1094 14.90792564 38525
TOKI                    
1 42820U 98067MU  18066.67272898  .00013634  00000-0  15004-3 0  9996
2 42820  51.6360 155.8055 0002299 124.6393 235.4819 15.63473902 37954
